{
  "type": "FeatureCollection",
  "features": [
    {
      "type": "Feature",
      "properties": {
        "norad_id": 67032,
        "name": "STARLINK-36131",
        "group": "last-30-days",
        "lat": 25.008508320487387,
        "lon": -112.99680542060966,
        "alt_km": 370.0293961930074,
        "timestamp": "2025-12-26T16:33:54.332877+00:00",
        "meta_object_name": "STARLINK-36131",
        "meta_object_id": "2025-294C",
        "meta_epoch": "2025-12-26T06:00:02.999808",
        "meta_mean_motion": 15.6688173,
        "meta_eccentricity": 0.00012227,
        "meta_inclination": 42.9993,
        "meta_ra_of_asc_node": 99.6796,
        "meta_arg_of_pericenter": 271.2395,
        "meta_mean_anomaly": 265.9157,
        "meta_ephemeris_type": 0,
        "meta_classification_type": "U",
        "meta_norad_cat_id": 67032,
        "meta_element_set_no": 999,
        "meta_rev_at_epoch": 228,
        "meta_bstar": -0.020078797,
        "meta_mean_motion_dot": -0.01934647,
        "meta_mean_motion_ddot": 0,
        "tle_line1": "1 67032U 25294C   25360.25003472 -.01934647  00000+0 -20079-1 0  9993",
        "tle_line2": "2 67032  42.9993  99.6796 0001222 271.2395 265.9157 15.66881730  2280"
      },
      "geometry": {
        "type": "Point",
        "coordinates": [
          -112.99680542060966,
          25.008508320487387
        ]
      }
    },
    {
      "type": "Feature",
      "properties": {
        "norad_id": 67033,
        "name": "STARLINK-36137",
        "group": "last-30-days",
        "lat": 26.187295907885648,
        "lon": -114.80516397713738,
        "alt_km": 369.9103137289685,
        "timestamp": "2025-12-26T16:33:54.332886+00:00",
        "meta_object_name": "STARLINK-36137",
        "meta_object_id": "2025-294D",
        "meta_epoch": "2025-12-26T06:00:02.999808",
        "meta_mean_motion": 15.66887504,
        "meta_eccentricity": 0.00012382,
        "meta_inclination": 42.9994,
        "meta_ra_of_asc_node": 99.6849,
        "meta_arg_of_pericenter": 275.1267,
        "meta_mean_anomaly": 260.0021,
        "meta_ephemeris_type": 0,
        "meta_classification_type": "U",
        "meta_norad_cat_id": 67033,
        "meta_element_set_no": 999,
        "meta_rev_at_epoch": 228,
        "meta_bstar": -0.020051305,
        "meta_mean_motion_dot": -0.01932722,
        "meta_mean_motion_ddot": 0,
        "tle_line1": "1 67033U 25294D   25360.25003472 -.01932722  00000+0 -20051-1 0  9996",
        "tle_line2": "2 67033  42.9994  99.6849 0001238 275.1267 260.0021 15.66887504  2280"
      },
      "geometry": {
        "type": "Point",
        "coordinates": [
          -114.80516397713738,
          26.187295907885648
        ]
      }
    },
    {
      "type": "Feature",
      "properties": {
        "norad_id": 67034,
        "name": "STARLINK-36140",
        "group": "last-30-days",
        "lat": 23.76703025726958,
        "lon": -111.16288736758955,
        "alt_km": 370.17130512037875,
        "timestamp": "2025-12-26T16:33:54.332895+00:00",
        "meta_object_name": "STARLINK-36140",
        "meta_object_id": "2025-294E",
        "meta_epoch": "2025-12-26T06:00:02.999808",
        "meta_mean_motion": 15.66864533,
        "meta_eccentricity": 0.00010751,
        "meta_inclination": 42.9992,
        "meta_ra_of_asc_node": 99.6748,
        "meta_arg_of_pericenter": 271.6061,
        "meta_mean_anomaly": 267.6524,
        "meta_ephemeris_type": 0,
        "meta_classification_type": "U",
        "meta_norad_cat_id": 67034,
        "meta_element_set_no": 999,
        "meta_rev_at_epoch": 228,
        "meta_bstar": -0.020016278,
        "meta_mean_motion_dot": -0.01928017,
        "meta_mean_motion_ddot": 0,
        "tle_line1": "1 67034U 25294E   25360.25003472 -.01928017  00000+0 -20016-1 0  9990",
        "tle_line2": "2 67034  42.9992  99.6748 0001075 271.6061 267.6524 15.66864533  2287"
      },
      "geometry": {
        "type": "Point",
        "coordinates": [
          -111.16288736758955,
          23.76703025726958
        ]
      }
    },
    {
      "type": "Feature",
      "properties": {
        "norad_id": 67035,
        "name": "STARLINK-36085",
        "group": "last-30-days",
        "lat": 21.208480501455192,
        "lon": -107.58101677657596,
        "alt_km": 370.56534364202344,
        "timestamp": "2025-12-26T16:33:54.332904+00:00",
        "meta_object_name": "STARLINK-36085",
        "meta_object_id": "2025-294F",
        "meta_epoch": "2025-12-26T06:00:02.999808",
        "meta_mean_motion": 15.66839712,
        "meta_eccentricity": 0.00010419,
        "meta_inclination": 42.9994,
        "meta_ra_of_asc_node": 99.6639,
        "meta_arg_of_pericenter": 269.2881,
        "meta_mean_anomaly": 274.2026,
        "meta_ephemeris_type": 0,
        "meta_classification_type": "U",
        "meta_norad_cat_id": 67035,
        "meta_element_set_no": 999,
        "meta_rev_at_epoch": 228,
        "meta_bstar": -0.020103164,
        "meta_mean_motion_dot": -0.01933648,
        "meta_mean_motion_ddot": 0,
        "tle_line1": "1 67035U 25294F   25360.25003472 -.01933648  00000+0 -20103-1 0  9994",
        "tle_line2": "2 67035  42.9994  99.6639 0001041 269.2881 274.2026 15.66839712  2287"
      },
      "geometry": {
        "type": "Point",
        "coordinates": [
          -107.58101677657596,
          21.208480501455192
        ]
      }
    },
    {
      "type": "Feature",
      "properties": {
        "norad_id": 67036,
        "name": "STARLINK-36125",
        "group": "last-30-days",
        "lat": 22.49942913932803,
        "lon": -109.35778868770208,
        "alt_km": 370.47423532835273,
        "timestamp": "2025-12-26T16:33:54.332913+00:00",
        "meta_object_name": "STARLINK-36125",
        "meta_object_id": "2025-294G",
        "meta_epoch": "2025-12-26T06:00:02.999808",
        "meta_mean_motion": 15.66852727,
        "meta_eccentricity": 0.00012513,
        "meta_inclination": 42.9995,
        "meta_ra_of_asc_node": 99.6691,
        "meta_arg_of_pericenter": 271.6415,
        "meta_mean_anomaly": 269.7331,
        "meta_ephemeris_type": 0,
        "meta_classification_type": "U",
        "meta_norad_cat_id": 67036,
        "meta_element_set_no": 999,
        "meta_rev_at_epoch": 247,
        "meta_bstar": -0.020086553,
        "meta_mean_motion_dot": -0.01933296,
        "meta_mean_motion_ddot": 0,
        "tle_line1": "1 67036U 25294G   25360.25003472 -.01933296  00000+0 -20087-1 0  9995",
        "tle_line2": "2 67036  42.9995  99.6691 0001251 271.6415 269.7331 15.66852727  2470"
      },
      "geometry": {
        "type": "Point",
        "coordinates": [
          -109.35778868770208,
          22.49942913932803
        ]
      }
    },
    {
      "type": "Feature",
      "properties": {
        "norad_id": 67037,
        "name": "STARLINK-35732",
        "group": "last-30-days",
        "lat": 19.861762494540837,
        "lon": -105.78598735094333,
        "alt_km": 370.85636411821633,
        "timestamp": "2025-12-26T16:33:54.332923+00:00",
        "meta_object_name": "STARLINK-35732",
        "meta_object_id": "2025-294H",
        "meta_epoch": "2025-12-26T06:00:02.999808",
        "meta_mean_motion": 15.66819865,
        "meta_eccentricity": 0.00011431,
        "meta_inclination": 42.9995,
        "meta_ra_of_asc_node": 99.6586,
        "meta_arg_of_pericenter": 269.981,
        "meta_mean_anomaly": 275.6983,
        "meta_ephemeris_type": 0,
        "meta_classification_type": "U",
        "meta_norad_cat_id": 67037,
        "meta_element_set_no": 999,
        "meta_rev_at_epoch": 239,
        "meta_bstar": -0.020118407,
        "meta_mean_motion_dot": -0.01933624,
        "meta_mean_motion_ddot": 0,
        "tle_line1": "1 67037U 25294H   25360.25003472 -.01933624  00000+0 -20118-1 0  9996",
        "tle_line2": "2 67037  42.9995  99.6586 0001143 269.9810 275.6983 15.66819865  2399"
      },
      "geometry": {
        "type": "Point",
        "coordinates": [
          -105.78598735094333,
          19.861762494540837
        ]
      }
    },
    {
      "type": "Feature",
      "properties": {
        "norad_id": 67038,
        "name": "STARLINK-35775",
        "group": "last-30-days",
        "lat": 18.58586848577176,
        "lon": -104.13511781686319,
        "alt_km": 371.0844726002324,
        "timestamp": "2025-12-26T16:33:54.332934+00:00",
        "meta_object_name": "STARLINK-35775",
        "meta_object_id": "2025-294J",
        "meta_epoch": "2025-12-26T06:00:02.999808",
        "meta_mean_motion": 15.66805601,
        "meta_eccentricity": 0.00012431,
        "meta_inclination": 42.9998,
        "meta_ra_of_asc_node": 99.6529,
        "meta_arg_of_pericenter": 269.8073,
        "meta_mean_anomaly": 277.9087,
        "meta_ephemeris_type": 0,
        "meta_classification_type": "U",
        "meta_norad_cat_id": 67038,
        "meta_element_set_no": 999,
        "meta_rev_at_epoch": 239,
        "meta_bstar": -0.02007003,
        "meta_mean_motion_dot": -0.01928589,
        "meta_mean_motion_ddot": 0,
        "tle_line1": "1 67038U 25294J   25360.25003472 -.01928589  00000+0 -20070-1 0  9998",
        "tle_line2": "2 67038  42.9998  99.6529 0001243 269.8073 277.9087 15.66805601  2394"
      },
      "geometry": {
        "type": "Point",
        "coordinates": [
          -104.13511781686319,
          18.58586848577176
        ]
      }
    }
  ]
}